[{"OBJECT_NAME":"ONEWEB-0694","OBJECT_ID":"2023-068N","EPOCH":"2026-06-19T15:24:57.343104","MEAN_MOTION":13.16594926,"ECCENTRICITY":0.0002541,"INCLINATION":87.9107,"RA_OF_ASC_NODE":228.2705,"ARG_OF_PERICENTER":96.5125,"MEAN_ANOMALY":263.6295,"EPHEMERIS_TYPE":0,"CLASSIFICATION_TYPE":"U","NORAD_CAT_ID":56722,"ELEMENT_SET_NO":999,"REV_AT_EPOCH":15209,"BSTAR":-0.00017412,"MEAN_MOTION_DOT":-5.4e-07,"MEAN_MOTION_DDOT":0.0},{"OBJECT_NAME":"ONEWEB-0696","OBJECT_ID":"2023-068P","EPOCH":"2026-06-20T05:09:32.165568","MEAN_MOTION":13.15546783,"ECCENTRICITY":0.0001498,"INCLINATION":87.9005,"RA_OF_ASC_NODE":258.6196,"ARG_OF_PERICENTER":101.4204,"MEAN_ANOMALY":258.7095,"EPHEMERIS_TYPE":0,"CLASSIFICATION_TYPE":"U","NORAD_CAT_ID":56723,"ELEMENT_SET_NO":999,"REV_AT_EPOCH":14976,"BSTAR":-0.00013387,"MEAN_MOTION_DOT":-3.8e-07,"MEAN_MOTION_DDOT":0.0},{"OBJECT_NAME":"ONEWEB-0703","OBJECT_ID":"2023-068Q","EPOCH":"2026-06-20T07:12:43.060032","MEAN_MOTION":13.15571505,"ECCENTRICITY":0.0001379,"INCLINATION":87.8984,"RA_OF_ASC_NODE":258.584,"ARG_OF_PERICENTER":94.4542,"MEAN_ANOMALY":265.6746,"EPHEMERIS_TYPE":0,"CLASSIFICATION_TYPE":"U","NORAD_CAT_ID":56724,"ELEMENT_SET_NO":999,"REV_AT_EPOCH":14966,"BSTAR":0.0058757,"MEAN_MOTION_DOT":2.226e-05,"MEAN_MOTION_DDOT":0.0},{"OBJECT_NAME":"ONEWEB-0721","OBJECT_ID":"2023-068R","EPOCH":"2026-06-20T03:59:24.791424","MEAN_MOTION":13.22469836,"ECCENTRICITY":0.0001892,"INCLINATION":86.6765,"RA_OF_ASC_NODE":84.5656,"ARG_OF_PERICENTER":77.872,"MEAN_ANOMALY":282.2625,"EPHEMERIS_TYPE":0,"CLASSIFICATION_TYPE":"U","NORAD_CAT_ID":56725,"ELEMENT_SET_NO":999,"REV_AT_EPOCH":15833,"BSTAR":0.0002161,"MEAN_MOTION_DOT":1.05e-06,"MEAN_MOTION_DDOT":0.0},{"OBJECT_NAME":"ONEWEB-0015","OBJECT_ID":"2024-188A","EPOCH":"2026-06-20T06:50:26.683584","MEAN_MOTION":13.11414028,"ECCENTRICITY":0.0002104,"INCLINATION":87.8881,"RA_OF_ASC_NODE":20.4763,"ARG_OF_PERICENTER":72.5583,"MEAN_ANOMALY":287.5775,"EPHEMERIS_TYPE":0,"CLASSIFICATION_TYPE":"U","NORAD_CAT_ID":61594,"ELEMENT_SET_NO":999,"REV_AT_EPOCH":8486,"BSTAR":-0.00038367,"MEAN_MOTION_DOT":-1.23e-06,"MEAN_MOTION_DDOT":0.0},{"OBJECT_NAME":"ONEWEB-0687","OBJECT_ID":"2024-188B","EPOCH":"2026-06-19T23:08:51.523008","MEAN_MOTION":13.17648647,"ECCENTRICITY":0.0002353,"INCLINATION":87.9126,"RA_OF_ASC_NODE":5.3238,"ARG_OF_PERICENTER":85.7118,"MEAN_ANOMALY":274.4282,"EPHEMERIS_TYPE":0,"CLASSIFICATION_TYPE":"U","NORAD_CAT_ID":61595,"ELEMENT_SET_NO":999,"REV_AT_EPOCH":8626,"BSTAR":5.8525000000000006e-05,"MEAN_MOTION_DOT":3.6e-07,"MEAN_MOTION_DDOT":0.0},{"OBJECT_NAME":"ONEWEB-0688","OBJECT_ID":"2024-188C","EPOCH":"2026-06-19T22:00:49.297536","MEAN_MOTION":13.17647812,"ECCENTRICITY":0.000257,"INCLINATION":87.9128,"RA_OF_ASC_NODE":5.333,"ARG_OF_PERICENTER":62.2046,"MEAN_ANOMALY":297.9346,"EPHEMERIS_TYPE":0,"CLASSIFICATION_TYPE":"U","NORAD_CAT_ID":61596,"ELEMENT_SET_NO":999,"REV_AT_EPOCH":8625,"BSTAR":-0.00036269000000000004,"MEAN_MOTION_DOT":-1.28e-06,"MEAN_MOTION_DDOT":0.0},{"OBJECT_NAME":"ONEWEB-0689","OBJECT_ID":"2024-188D","EPOCH":"2026-06-20T00:19:47.731296","MEAN_MOTION":13.11418708,"ECCENTRICITY":0.0002098,"INCLINATION":87.8899,"RA_OF_ASC_NODE":20.4888,"ARG_OF_PERICENTER":90.8364,"MEAN_ANOMALY":269.3005,"EPHEMERIS_TYPE":0,"CLASSIFICATION_TYPE":"U","NORAD_CAT_ID":61597,"ELEMENT_SET_NO":999,"REV_AT_EPOCH":8482,"BSTAR":-0.0006766799999999999,"MEAN_MOTION_DOT":-2.27e-06,"MEAN_MOTION_DDOT":0.0},{"OBJECT_NAME":"ONEWEB-0690","OBJECT_ID":"2024-188E","EPOCH":"2026-06-20T00:34:28.337376","MEAN_MOTION":13.11418066,"ECCENTRICITY":0.000122,"INCLINATION":87.8892,"RA_OF_ASC_NODE":20.4983,"ARG_OF_PERICENTER":78.2636,"MEAN_ANOMALY":281.8629,"EPHEMERIS_TYPE":0,"CLASSIFICATION_TYPE":"U","NORAD_CAT_ID":61598,"ELEMENT_SET_NO":999,"REV_AT_EPOCH":8500,"BSTAR":0.0010565,"MEAN_MOTION_DOT":3.87e-06,"MEAN_MOTION_DDOT":0.0},{"OBJECT_NAME":"ONEWEB-0691","OBJECT_ID":"2024-188F","EPOCH":"2026-06-20T00:27:08.898336","MEAN_MOTION":13.11419307,"ECCENTRICITY":0.0002112,"INCLINATION":87.8904,"RA_OF_ASC_NODE":20.4082,"ARG_OF_PERICENTER":78.3954,"MEAN_ANOMALY":281.7411,"EPHEMERIS_TYPE":0,"CLASSIFICATION_TYPE":"U","NORAD_CAT_ID":61599,"ELEMENT_SET_NO":999,"REV_AT_EPOCH":8485,"BSTAR":0.00073071,"MEAN_MOTION_DOT":2.72e-06,"MEAN_MOTION_DDOT":0.0},{"OBJECT_NAME":"ONEWEB-0692","OBJECT_ID":"2024-188G","EPOCH":"2026-06-19T23:06:34.731936","MEAN_MOTION":13.11415297,"ECCENTRICITY":0.0001993,"INCLINATION":87.8883,"RA_OF_ASC_NODE":20.5321,"ARG_OF_PERICENTER":109.7253,"MEAN_ANOMALY":250.4091,"EPHEMERIS_TYPE":0,"CLASSIFICATION_TYPE":"U","NORAD_CAT_ID":61600,"ELEMENT_SET_NO":999,"REV_AT_EPOCH":8483,"BSTAR":0.0014283000000000002,"MEAN_MOTION_DOT":5.19e-06,"MEAN_MOTION_DDOT":0.0},{"OBJECT_NAME":"ONEWEB-0693","OBJECT_ID":"2024-188H","EPOCH":"2026-06-19T22:17:49.619328","MEAN_MOTION":13.17648731,"ECCENTRICITY":0.0001207,"INCLINATION":87.9122,"RA_OF_ASC_NODE":5.3506,"ARG_OF_PERICENTER":70.2374,"MEAN_ANOMALY":289.8888,"EPHEMERIS_TYPE":0,"CLASSIFICATION_TYPE":"U","NORAD_CAT_ID":61601,"ELEMENT_SET_NO":999,"REV_AT_EPOCH":8624,"BSTAR":2.6958e-05,"MEAN_MOTION_DOT":2.3e-07,"MEAN_MOTION_DDOT":0.0},{"OBJECT_NAME":"ONEWEB-0695","OBJECT_ID":"2024-188J","EPOCH":"2026-06-20T00:22:15.671424","MEAN_MOTION":13.11419487,"ECCENTRICITY":0.0002162,"INCLINATION":87.8879,"RA_OF_ASC_NODE":20.5134,"ARG_OF_PERICENTER":98.9166,"MEAN_ANOMALY":261.2207,"EPHEMERIS_TYPE":0,"CLASSIFICATION_TYPE":"U","NORAD_CAT_ID":61602,"ELEMENT_SET_NO":999,"REV_AT_EPOCH":8483,"BSTAR":0.00013238,"MEAN_MOTION_DOT":6e-07,"MEAN_MOTION_DDOT":0.0},{"OBJECT_NAME":"ONEWEB-0697","OBJECT_ID":"2024-188K","EPOCH":"2026-06-20T06:38:14.260416","MEAN_MOTION":13.11424043,"ECCENTRICITY":0.0001615,"INCLINATION":87.8891,"RA_OF_ASC_NODE":20.4522,"ARG_OF_PERICENTER":123.3523,"MEAN_ANOMALY":236.776,"EPHEMERIS_TYPE":0,"CLASSIFICATION_TYPE":"U","NORAD_CAT_ID":61603,"ELEMENT_SET_NO":999,"REV_AT_EPOCH":8485,"BSTAR":-0.00039732,"MEAN_MOTION_DOT":-1.28e-06,"MEAN_MOTION_DDOT":0.0},{"OBJECT_NAME":"ONEWEB-0698","OBJECT_ID":"2024-188L","EPOCH":"2026-06-20T00:36:54.787968","MEAN_MOTION":13.11417321,"ECCENTRICITY":0.0001091,"INCLINATION":87.8883,"RA_OF_ASC_NODE":20.5158,"ARG_OF_PERICENTER":124.6164,"MEAN_ANOMALY":235.5067,"EPHEMERIS_TYPE":0,"CLASSIFICATION_TYPE":"U","NORAD_CAT_ID":61604,"ELEMENT_SET_NO":999,"REV_AT_EPOCH":8484,"BSTAR":0.0014203,"MEAN_MOTION_DOT":5.16e-06,"MEAN_MOTION_DDOT":0.0},{"OBJECT_NAME":"ONEWEB-0699","OBJECT_ID":"2024-188M","EPOCH":"2026-06-20T00:58:29.656128","MEAN_MOTION":13.10424947,"ECCENTRICITY":0.0001711,"INCLINATION":87.8829,"RA_OF_ASC_NODE":35.6983,"ARG_OF_PERICENTER":105.5398,"MEAN_ANOMALY":254.5918,"EPHEMERIS_TYPE":0,"CLASSIFICATION_TYPE":"U","NORAD_CAT_ID":61605,"ELEMENT_SET_NO":999,"REV_AT_EPOCH":8368,"BSTAR":-0.0010298,"MEAN_MOTION_DOT":-3.47e-06,"MEAN_MOTION_DDOT":0.0}]